COSMOS 2425 (716)       
1 29670U 06062A   18168.41612966 -.00000018  00000-0  10000-3 0  9991
2 29670  65.2807 292.5286 0020476 349.0506 258.6054  2.13105059 89311
COSMOS 2426 (717)       
1 29671U 06062B   18167.83665142 -.00000015  00000-0  10000-3 0  9998
2 29671  65.2980 292.6466 0018849 162.7510 216.0957  2.13102960 89319
COSMOS 2433 (720)       
1 32275U 07052A   18167.82484663 -.00000045  00000-0  10000-3 0  9991
2 32275  65.6879  53.3747 0002327 301.8943  43.4742  2.13104564 82812
COSMOS 2432 (719)       
1 32276U 07052B   18167.82539449 -.00000045  00000-0  10000-3 0  9995
2 32276  65.7005  53.4506 0012321 340.0013 317.7657  2.13104081 82813
COSMOS 2434 (721)       
1 32393U 07065A   18168.45656196 -.00000018  00000-0  00000+0 0  9993
2 32393  64.8950 291.5023 0005383 112.5436 245.5205  2.13103040 81531
COSMOS 2436 (723)       
1 32395U 07065C   18167.55861946 -.00000014  00000-0  10000-3 0  9997
2 32395  64.9045 291.5833 0014549   5.2392  74.4470  2.13104440 81450
COSMOS 2456 (730)       
1 36111U 09070A   18167.49874438  .00000071  00000-0  00000-0 0  9996
2 36111  64.1862 171.1255 0006670 300.4438 215.0629  2.13103023 66185
COSMOS 2457 (733)       
1 36112U 09070B   18167.72406009  .00000071  00000-0  00000-0 0  9998
2 36112  64.1687 171.0285 0005755 196.8789 258.3632  2.13101592 66196
COSMOS 2458 (734)       
1 36113U 09070C   18167.69801845  .00000071  00000-0  10000-3 0  9996
2 36113  64.1742 171.0405 0003046 314.4333 168.5864  2.13096859 66195
COSMOS 2459 (731)       
1 36400U 10007A   18166.90237060 -.00000039  00000-0  10000-3 0  9997
2 36400  65.5965  52.4651 0028266 353.4347 223.1922  2.13102330 64520
COSMOS 2461 (735)       
1 36401U 10007B   18167.47224328 -.00000043  00000-0  10000-3 0  9999
2 36401  65.5895  52.4227 0008126  57.6720 146.7335  2.13102396 64534
COSMOS 2460 (732)       
1 36402U 10007C   18167.41973542 -.00000043  00000-0  10000-3 0  9993
2 36402  65.5798  52.3904 0001995  22.5794 182.1667  2.13101681 64535
COSMOS 2464 (736)       
1 37139U 10041C   18167.68382515 -.00000015  00000-0  00000-0 0  9997
2 37139  64.4987 291.3343 0023522  15.8487 337.1950  2.13102776 60604
COSMOS 2471 (701K)      
1 37372U 11009A   18168.55272250 -.00000052  00000-0  00000+0 0  9992
2 37372  65.5770  52.2990 0007147 237.7284 260.1682  2.13107610 56831
COSMOS 2474 (742)       
1 37829U 11055A   18167.65268360  .00000071  00000-0  00000-0 0  9998
2 37829  64.5105 171.8371 0011027 253.9463 237.8137  2.13101987 52182
COSMOS 2476 (744)       
1 37867U 11064A   18167.70766155  .00000071  00000-0  00000-0 0  9991
2 37867  64.4901 171.8974 0020575 245.6764 334.3052  2.13102044 51538
COSMOS 2477 (745)       
1 37868U 11064B   18167.82803916  .00000071  00000-0  00000-0 0  9992
2 37868  64.4983 171.9416 0018413 247.3118 243.9129  2.13101871 51493
COSMOS 2475 (743)       
1 37869U 11064C   18168.43573226  .00000072  00000-0  00000+0 0  9999
2 37869  64.5057 171.9158 0023079 268.7124 285.4204  2.13102129 51513
COSMOS 2485 (747)       
1 39155U 13019A   18167.62284779  .00000071  00000-0  00000-0 0  9993
2 39155  64.6592 172.0099 0020906 241.1322 318.6568  2.13102050 40002
COSMOS 2492 (754)       
1 39620U 14012A   18167.74824485 -.00000045  00000-0  10000-3 0  9997
2 39620  65.4710  52.2659 0015160 336.0905 354.6665  2.13102803 32957
COSMOS 2500 (755)       
1 40001U 14032A   18167.89189789 -.00000047  00000-0  00000-0 0  9999
2 40001  65.4096  52.2299 0004192 208.5873  94.6550  2.13102901 31175
COSMOS 2501 (702K)      
1 40315U 14075A   18167.70864112 -.00000016  00000-0  00000-0 0  9990
2 40315  64.2238 292.5471 0015625 203.7304 120.5565  2.13098722 27577
COSMOS 2514 (751)       
1 41330U 16008A   18167.68539763 -.00000045  00000-0  00000-0 0  9996
2 41330  65.2125  52.2902 0007647 219.5813 106.1220  2.13103328 18337
COSMOS 2516 (753)       
1 41554U 16032A   18168.41253766 -.00000019  00000-0  00000+0 0  9999
2 41554  64.4440 292.3870 0011774 211.6295 203.0407  2.13101699 15969
COSMOS 2522 (752)       
1 42939U 17055A   18167.64682828 -.00000015  00000-0  00000-0 0  9999
2 42939  64.6751 292.3796 0006445 237.7509 175.9245  2.13101937  5700
